NORAD_CAT_ID,OBJECT_NAME,OBJECT_TYPE,EPOCH,MEAN_MOTION,ECCENTRICITY,INCLINATION,RA_OF_ASC_NODE,ARG_OF_PERICENTER,MEAN_ANOMALY,BSTAR,MEAN_MOTION_DOT,MEAN_MOTION_DDOT,TLE_LINE0,TLE_LINE1,TLE_LINE2,SEMIMAJOR_AXIS,PERIOD,APOGEE,PERIGEE,DECAYED
49457.0,STARLINK-3132,PAYLOAD,2024-04-06 18:41:28,15.0883342,0.0001303,53.2168,130.1311,88.4977,271.6164,-0.00010622,-1.978e-05,0.0,0 STARLINK-3132,1 49457U 21104BB  24097.77880708 -.00001978  00000-0 -10622-3 0  9995,2 49457  53.2168 130.1311 0001303  88.4977 271.6164 15.08833420132812,6917.901,95.438,540.667,538.864,0.0
49457.0,STARLINK-3132,PAYLOAD,2024-04-07 08:59:57,15.0883057,0.000133,53.2171,127.4554,91.8825,268.2319,-0.00012143,-2.219e-05,0.0,0 STARLINK-3132,1 49457U 21104BB  24098.37497244 -.00002219  00000-0 -12143-3 0  9990,2 49457  53.2171 127.4554 0001330  91.8825 268.2319 15.08830570132901,6917.909,95.438,540.694,538.854,0.0
49457.0,STARLINK-3132,PAYLOAD,2024-04-07 18:32:16,15.08836559,0.0001363,53.2172,125.6711,90.2416,269.8732,-0.0001056,-1.968e-05,0.0,0 STARLINK-3132,1 49457U 21104BB  24098.77240939 -.00001968  00000-0 -10560-3 0  9992,2 49457  53.2172 125.6711 0001363  90.2416 269.8732 15.08836559134037,6917.891,95.438,540.699,538.813,0.0
49457.0,STARLINK-3132,PAYLOAD,2024-04-08 08:50:44,15.08831156,0.0001316,53.2169,122.9945,85.8699,274.2443,0.00013778,1.905e-05,0.0,0 STARLINK-3132,1 49457U 21104BB  24099.36856856  .00001905  00000-0  13778-3 0  9992,2 49457  53.2169 122.9945 0001316  85.8699 274.2443 15.08831156133051,6917.907,95.438,540.683,538.862,0.0
49457.0,STARLINK-3132,PAYLOAD,2024-04-08 18:23:02,15.08838842,0.0001344,53.2173,121.2102,84.8399,275.2747,0.00014182,1.97e-05,0.0,0 STARLINK-3132,1 49457U 21104BB  24099.76600534  .00001970  00000-0  14182-3 0  9998,2 49457  53.2173 121.2102 0001344  84.8399 275.2747 15.08838842134182,6917.884,95.438,540.679,538.819,0.0
49457.0,STARLINK-3132,PAYLOAD,2024-04-09 00:44:35,15.08836533,0.0001369,53.2175,120.0209,86.0588,274.056,0.00013832,1.914e-05,0.0,0 STARLINK-3132,1 49457U 21104BB  24100.03096761  .00001914  00000-0  13832-3 0  9991,2 49457  53.2175 120.0209 0001369  86.0588 274.0560 15.08836533133151,6917.891,95.438,540.703,538.809,0.0
49457.0,STARLINK-3132,PAYLOAD,2024-04-09 08:41:31,15.08833051,0.0001384,53.2175,118.5335,82.7023,277.4127,0.00010141,1.326e-05,0.0,0 STARLINK-3132,1 49457U 21104BB  24100.36217313  .00001326  00000-0  10141-3 0  9992,2 49457  53.2175 118.5335 0001384  82.7023 277.4127 15.08833051134279,6917.902,95.438,540.724,538.809,0.0
49457.0,STARLINK-3132,PAYLOAD,2024-04-09 18:13:50,15.08840595,0.0001407,53.2176,116.7496,84.5175,275.5978,0.00012863,1.76e-05,0.0,0 STARLINK-3132,1 49457U 21104BB  24100.75960831  .00001760  00000-0  12863-3 0  9990,2 49457  53.2176 116.7496 0001407  84.5175 275.5978 15.08840595134333,6917.879,95.438,540.717,538.77,0.0
49457.0,STARLINK-3132,PAYLOAD,2024-04-10 10:07:41,15.08844048,0.0001446,53.2174,113.7757,87.179,272.9368,2.3839e-05,9.1e-07,0.0,0 STARLINK-3132,1 49457U 21104BB  24101.42200888  .00000091  00000-0  23839-4 0  9996,2 49457  53.2174 113.7757 0001446  87.1790 272.9368 15.08844048133366,6917.868,95.437,540.733,538.733,0.0
49457.0,STARLINK-3132,PAYLOAD,2024-04-10 18:04:37,15.08846588,0.0001446,53.217,112.289,86.8488,273.267,1.5728e-05,-3.8e-07,0.0,0 STARLINK-3132,1 49457U 21104BB  24101.75320623 -.00000038  00000-0  15728-4 0  9992,2 49457  53.2170 112.2890 0001446  86.8488 273.2670 15.08846588133411,6917.86,95.437,540.726,538.725,0.0
49457.0,STARLINK-3132,PAYLOAD,2024-04-11 00:26:09,15.08844679,0.0001522,53.2166,111.0994,86.7472,273.3694,2.4603e-05,1.04e-06,0.0,0 STARLINK-3132,1 49457U 21104BB  24102.01816641  .00000104  00000-0  24603-4 0  9997,2 49457  53.2166 111.0994 0001522  86.7472 273.3694 15.08844679134524,6917.866,95.437,540.784,538.678,0.0
49457.0,STARLINK-3132,PAYLOAD,2024-04-11 06:47:42,15.08835368,0.0001492,53.2169,109.9085,92.8732,267.243,3.8207e-07,-2.82e-06,0.0,0 STARLINK-3132,1 49457U 21104BB  24102.28313392 -.00000282  00000-0  38207-6 0  9996,2 49457  53.2169 109.9085 0001492  92.8732 267.2430 15.08835368134566,6917.895,95.438,540.792,538.727,0.0
49457.0,STARLINK-3132,PAYLOAD,2024-04-11 17:55:24,15.08840453,0.0001487,53.2178,107.8254,98.5175,261.5986,-6.4078e-06,-3.9e-06,0.0,0 STARLINK-3132,1 49457U 21104BB  24102.74681074 -.00000390  00000-0 -64078-5 0  9997,2 49457  53.2178 107.8254 0001487  98.5175 261.5986 15.08840453133562,6917.879,95.438,540.773,538.715,0.0
49457.0,STARLINK-3132,PAYLOAD,2024-04-12 06:38:29,15.08842716,0.0001548,53.2173,105.4462,103.1568,256.9597,3.8951e-05,3.32e-06,0.0,0 STARLINK-3132,1 49457U 21104BB  24103.27672715  .00000332  00000-0  38951-4 0  9992,2 49457  53.2173 105.4462 0001548 103.1568 256.9597 15.08842716134717,6917.872,95.437,540.808,538.666,0.0
49457.0,STARLINK-3132,PAYLOAD,2024-04-13 04:53:53,15.08835168,0.0001447,53.2166,101.2833,101.9917,258.1237,5.3643e-05,5.66e-06,0.0,0 STARLINK-3132,1 49457U 21104BB  24104.20409133  .00000566  00000-0  53643-4 0  9992,2 49457  53.2166 101.2833 0001447 101.9917 258.1237 15.08835168134850,6917.895,95.438,540.761,538.759,0.0
49457.0,STARLINK-3132,PAYLOAD,2024-04-13 06:29:16,15.08836771,0.0001425,53.2168,100.9862,101.1805,258.9347,2.9939e-05,1.89e-06,0.0,0 STARLINK-3132,1 49457U 21104BB  24104.27033136  .00000189  00000-0  29939-4 0  9997,2 49457  53.2168 100.9862 0001425 101.1805 258.9347 15.08836771133797,6917.89,95.438,540.741,538.769,0.0
49457.0,STARLINK-3132,PAYLOAD,2024-04-14 06:20:04,15.08835661,0.0001433,53.2169,96.5251,106.4916,253.6233,-2.5059e-05,-6.87e-06,0.0,0 STARLINK-3132,1 49457U 21104BB  24105.26393573 -.00000687  00000-0 -25059-4 0  9995,2 49457  53.2169  96.5251 0001433 106.4916 253.6233 15.08835661135010,6917.894,95.438,540.75,538.767,0.0
49457.0,STARLINK-3132,PAYLOAD,2024-04-15 04:35:27,15.0883914,0.0001366,53.2168,92.3618,99.5972,260.5174,7.4507e-05,8.98e-06,0.0,0 STARLINK-3132,1 49457U 21104BB  24106.19129249  .00000898  00000-0  74507-4 0  9999,2 49457  53.2168  92.3618 0001366  99.5972 260.5174 15.08839140135151,6917.883,95.438,540.693,538.803,0.0
49457.0,STARLINK-3132,PAYLOAD,2024-04-16 04:26:15,15.08831439,0.0001879,53.2197,87.9062,97.7843,262.3362,3.7743e-05,3.12e-06,0.0,0 STARLINK-3132,1 49457U 21104BB  24107.18490163  .00000312  00000-0  37743-4 0  9997,2 49457  53.2197  87.9062 0001879  97.7843 262.3362 15.08831439135301,6917.907,95.438,541.071,538.472,0.0
49457.0,STARLINK-3132,PAYLOAD,2024-04-16 07:37:01,15.08836276,0.0001561,53.2183,87.3117,92.5848,267.5323,7.6071e-05,9.23e-06,0.0,0 STARLINK-3132,1 49457U 21104BB  24107.31737798  .00000923  00000-0  76071-4 0  9995,2 49457  53.2183  87.3117 0001561  92.5848 267.5323 15.08836276134258,6917.892,95.438,540.837,538.677,0.0
49457.0,STARLINK-3132,PAYLOAD,2024-04-16 15:33:56,15.08847773,0.00015,53.2181,85.825,96.2379,263.8784,0.00013485,1.859e-05,0.0,0 STARLINK-3132,1 49457U 21104BB  24107.64856909  .00001859  00000-0  13485-3 0  9995,2 49457  53.2181  85.8250 0001500  96.2379 263.8784 15.08847773135378,6917.857,95.437,540.759,538.684,0.0
49457.0,STARLINK-3132,PAYLOAD,2024-04-17 04:17:02,15.08841767,0.0001689,53.2187,83.4459,94.1023,266.0162,3.9036e-05,3.33e-06,0.0,0 STARLINK-3132,1 49457U 21104BB  24108.17849609  .00000333  00000-0  39036-4 0  9990,2 49457  53.2187  83.4459 0001689  94.1023 266.0162 15.08841767135451,6917.875,95.437,540.908,538.572,0.0
49457.0,STARLINK-3132,PAYLOAD,2024-04-17 07:27:47,15.08846845,0.000145,53.2174,82.8493,91.8916,268.2242,7.819e-05,9.57e-06,0.0,0 STARLINK-3132,1 49457U 21104BB  24108.31097117  .00000957  00000-0  78190-4 0  9991,2 49457  53.2174  82.8493 0001450  91.8916 268.2242 15.08846845134408,6917.859,95.437,540.728,538.721,0.0
49457.0,STARLINK-3132,PAYLOAD,2024-04-18 07:18:35,15.08833637,0.0001408,53.2175,78.3888,88.0094,272.106,-7.7152e-06,-4.11e-06,0.0,0 STARLINK-3132,1 49457U 21104BB  24109.30458324 -.00000411  00000-0 -77152-5 0  9997,2 49457  53.2175  78.3888 0001408  88.0094 272.1060 15.08833637135627,6917.9,95.438,540.739,538.791,0.0
49457.0,STARLINK-3132,PAYLOAD,2024-04-19 07:09:22,15.08845915,0.0001577,53.2184,73.9242,76.8679,283.2489,2.1367e-05,5.2e-07,0.0,0 STARLINK-3132,1 49457U 21104BB  24110.29817807  .00000052  00000-0  21367-4 0  9997,2 49457  53.2184  73.9242 0001577  76.8679 283.2489 15.08845915135779,6917.862,95.437,540.818,538.636,0.0
49457.0,STARLINK-3132,PAYLOAD,2024-04-20 07:00:09,15.08849099,0.0001641,53.2174,69.4614,75.2704,284.847,0.00035155,5.313e-05,0.0,0 STARLINK-3132,1 49457U 21104BB  24111.29177732  .00005313  00000-0  35155-3 0  9998,2 49457  53.2174  69.4614 0001641  75.2704 284.8470 15.08849099134857,6917.853,95.437,540.853,538.582,0.0
49457.0,STARLINK-3132,PAYLOAD,2024-04-21 03:40:12,15.0880987,0.0001437,53.2177,65.5958,111.4235,248.691,-0.00036554,-6.096e-05,0.0,0 STARLINK-3132,1 49457U 21104BB  24112.15291867 -.00006096  00000-0 -36554-3 0  9995,2 49457  53.2177  65.5958 0001437 111.4235 248.6910 15.08809870136057,6917.972,95.439,540.832,538.843,0.0
49457.0,STARLINK-3132,PAYLOAD,2024-04-21 06:50:58,15.08808506,0.0001517,53.2179,65.0017,115.863,244.2519,-0.00036449,-6.079e-05,0.0,0 STARLINK-3132,1 49457U 21104BB  24112.28540138 -.00006079  00000-0 -36449-3 0  9991,2 49457  53.2179  65.0017 0001517 115.8630 244.2519 15.08808506135002,6917.977,95.44,540.891,538.792,0.0
49457.0,STARLINK-3132,PAYLOAD,2024-04-22 03:30:57,15.08862685,0.0001504,53.2175,61.1379,129.9954,230.1171,0.00062295,9.646e-05,0.0,0 STARLINK-3132,1 49457U 21104BB  24113.14650160  .00009646  00000-0  62295-3 0  9993,2 49457  53.2175  61.1379 0001504 129.9954 230.1171 15.08862685136206,6917.811,95.436,540.716,538.636,0.0
49457.0,STARLINK-3132,PAYLOAD,2024-04-23 01:46:22,15.08838961,0.000121,53.2184,56.9757,131.487,228.6226,0.00030939,4.639e-05,0.0,0 STARLINK-3132,1 49457U 21104BB  24114.07387115  .00004639  00000-0  30939-3 0  9990,2 49457  53.2184  56.9757 0001210 131.4870 228.6226 15.08838961136345,6917.884,95.438,540.586,538.912,0.0
